[Satellite]
VERSION=1.1
NAME=COSMOS 1833
NICKNAME=COSMOS 1833
TLE1=1 17589U 87027A   15054.94883138 -.00000346  00000-0 -15994-3 0  9999
TLE2=2 17589  70.9171 158.8549 0010834 155.1331 321.1441 14.12846020441061
